FENGYUN 1C DEB          
1 37695U 99025ELL 17345.53643668  .00000100  00000-0  83679-4 0  9994
2 37695  98.2396  88.6930 0496786  76.0184 342.6748 13.56096608495634
